ONEWEB-0410             
1 51622U 22012A   24072.27291415  .00000125  00000+0  28833-3 0  9993
2 51622  87.9260 170.3527 0003074 114.7649 245.3803 13.17651739104802
ONEWEB-0411             
1 51623U 22012B   24072.59595789 -.00000153  00000+0 -47327-3 0  9992
2 51623  87.8972 200.4748 0001540 114.1152 246.0137 13.10369230101036
ONEWEB-0415             
1 51624U 22012C   24072.59273776  .00000149  00000+0  38953-3 0  9990
2 51624  87.8968 200.5023 0001516 118.4144 241.7136 13.10369139101039
ONEWEB-0416             
1 51625U 22012D   24072.60407973 -.00000457  00000+0 -13458-2 0  9997
2 51625  87.8976 200.4891 0001766 106.0506 254.0816 13.10371245101070
ONEWEB-0422             
1 51626U 22012E   24072.51020876 -.00000164  00000+0 -45538-3 0  9991
2 51626  87.9263 170.3035 0001724  82.1566 277.9761 13.17648939104946
ONEWEB-0423             
1 51627U 22012F   24072.27607777  .00000076  00000+0  16198-3 0  9996
2 51627  87.9265 170.3492 0001977 103.6129 256.5223 13.17647394104805
ONEWEB-0425             
1 51628U 22012G   24072.61382443 -.00000710  00000+0 -20714-2 0  9990
2 51628  87.8974 200.4739 0002155 101.3506 258.7864 13.10373708101073
ONEWEB-0428             
1 51629U 22012H   24072.59433879 -.00000138  00000+0 -43222-3 0  9992
2 51629  87.8973 200.4916 0001379  97.2972 262.8312 13.10369162101036
